VCC B                   
1 44431U 98067QR  20122.45730271  .00008516  00000-0  12441-3 0  9997
2 44431  51.6394 210.8530 0002267 154.8350 205.2753 15.56538651 47121
ATL-1                   
1 44830U 19084G   20122.73670428  .00054659  00000-0  36814-3 0  9999
2 44830  96.9823 351.5707 0031051  59.6312 300.8017 15.74292764 23092
SMOG-P                  
1 44832U 19084J   20122.57443111  .00060135  00000-0  39160-3 0  9993
2 44832  96.9829 351.5012 0030012  59.0798 301.3412 15.75093693 23071
DUCHIFAT-3              
1 44854U 19089C   20123.06821129  .00000425  00000-0  40819-4 0  9996
2 44854  36.9683  12.4713 0007818  37.1566 322.9707 14.99038879 21339
ORBITAL FACTORY 2 (OF-2)
1 45113U 19071C   20122.75178561  .00001686  00000-0  63294-4 0  9998
2 45113  51.6431 229.1227 0012639 248.5533 111.4101 15.33194965 13966
